NORAD_CAT_ID,OBJECT_NAME,OBJECT_TYPE,EPOCH,MEAN_MOTION,ECCENTRICITY,INCLINATION,RA_OF_ASC_NODE,ARG_OF_PERICENTER,MEAN_ANOMALY,BSTAR,MEAN_MOTION_DOT,MEAN_MOTION_DDOT,TLE_LINE0,TLE_LINE1,TLE_LINE2,SEMIMAJOR_AXIS,PERIOD,APOGEE,PERIGEE,DECAYED
54073.0,STARLINK-5146,PAYLOAD,2023-11-05 21:24:31,15.0887403,0.0001638,53.2161,216.1122,90.0936,270.0244,0.00075952,0.00011832,0.0,0 STARLINK-5146,1 54073U 22136Y   23309.89202793  .00011832  00000-0  75952-3 0  9996,2 54073  53.2161 216.1122 0001638  90.0936 270.0244 15.08874030 57871,6917.776,95.435,540.775,538.508,0.0
54073.0,STARLINK-5146,PAYLOAD,2023-11-06 03:46:02,15.08915349,0.0001616,53.2163,214.9224,123.4354,236.6793,0.0018634,0.00029554,0.0,0 STARLINK-5146,1 54073U 22136Y   23310.15697147  .00029554  00000-0  18634-2 0  9991,2 54073  53.2163 214.9224 0001616 123.4354 236.6793 15.08915349 58397,6917.65,95.433,540.633,538.397,0.0
54073.0,STARLINK-5146,PAYLOAD,2023-11-06 21:15:17,15.08844831,0.0001364,53.2174,211.6537,119.4344,240.6784,-0.00049695,-8.189e-05,0.0,0 STARLINK-5146,1 54073U 22136Y   23310.88561551 -.00008189  00000-0 -49695-3 0  9995,2 54073  53.2174 211.6537 0001364 119.4344 240.6784 15.08844831 58026,6917.866,95.437,540.674,538.787,0.0
54073.0,STARLINK-5146,PAYLOAD,2023-11-07 02:01:27,15.08787838,0.0001246,53.2162,210.7612,87.3546,272.7589,-0.0017958,-0.00028713,0.0,0 STARLINK-5146,1 54073U 22136Y   23311.08434553 -.00028713  00000-0 -17958-2 0  9990,2 54073  53.2162 210.7612 0001246  87.3546 272.7589 15.08787838 58531,6918.04,95.441,540.767,539.043,0.0
54073.0,STARLINK-5146,PAYLOAD,2023-11-07 09:58:24,15.08794031,0.0001349,53.2175,209.2752,98.5434,261.5711,-0.00016308,-2.879e-05,0.0,0 STARLINK-5146,1 54073U 22136Y   23311.41556127 -.00002879  00000-0 -16308-3 0  9993,2 54073  53.2175 209.2752 0001349  98.5434 261.5711 15.08794031 58588,6918.021,95.44,540.819,538.953,0.0
54073.0,STARLINK-5146,PAYLOAD,2023-11-08 01:52:17,15.08822476,0.0001202,53.2173,206.3009,98.6906,261.4222,0.0015997,0.00025251,0.0,0 STARLINK-5146,1 54073U 22136Y   23312.07797716  .00025251  00000-0  15997-2 0  9996,2 54073  53.2173 206.3009 0001202  98.6906 261.4222 15.08822476 58684,6917.934,95.439,540.63,538.967,0.0
54073.0,STARLINK-5146,PAYLOAD,2023-11-08 22:32:18,15.08841619,0.0001236,53.217,202.4352,91.5325,268.5808,0.0010455,0.00016391,0.0,0 STARLINK-5146,1 54073U 22136Y   23312.93910779  .00016391  00000-0  10455-2 0  9996,2 54073  53.2170 202.4352 0001236  91.5325 268.5808 15.08841619 58333,6917.875,95.437,540.595,538.885,0.0
54073.0,STARLINK-5146,PAYLOAD,2023-11-09 01:43:05,15.08848194,0.0001251,53.2166,201.8411,103.3437,256.7695,0.001131,0.00017762,0.0,0 STARLINK-5146,1 54073U 22136Y   23313.07158673  .00017762  00000-0  11310-2 0  9993,2 54073  53.2166 201.8411 0001251 103.3437 256.7695 15.08848194 58833,6917.855,95.437,540.586,538.855,0.0
54073.0,STARLINK-5146,PAYLOAD,2023-11-09 22:23:04,15.08872822,0.000139,53.216,197.9759,97.7807,262.3343,0.00063141,9.784e-05,0.0,0 STARLINK-5146,1 54073U 22136Y   23313.93269259  .00009784  00000-0  63141-3 0  9996,2 54073  53.2160 197.9759 0001390  97.7807 262.3343 15.08872822 58487,6917.78,95.435,540.607,538.683,0.0
54073.0,STARLINK-5146,PAYLOAD,2023-11-10 09:30:46,15.08859978,0.0001309,53.2161,195.8946,102.5642,257.5497,6.586e-05,7.61e-06,0.0,0 STARLINK-5146,1 54073U 22136Y   23314.39636669  .00000761  00000-0  65860-4 0  9997,2 54073  53.2161 195.8946 0001309 102.5642 257.5497 15.08859978 59030,6917.819,95.436,540.59,538.779,0.0
54073.0,STARLINK-5146,PAYLOAD,2023-11-10 22:13:51,15.08847764,0.0001537,53.2155,193.5157,100.7037,259.4128,1.7011e-05,-1.7e-07,0.0,0 STARLINK-5146,1 54073U 22136Y   23314.92628778 -.00000017  00000-0  17011-4 0  9998,2 54073  53.2155 193.5157 0001537 100.7037 259.4128 15.08847764 58630,6917.857,95.437,540.785,538.658,0.0
54073.0,STARLINK-5146,PAYLOAD,2023-11-10 23:49:14,15.0884918,0.0001553,53.2157,193.2182,100.2521,259.8647,0.00015959,2.253e-05,0.0,0 STARLINK-5146,1 54073U 22136Y   23314.99252756  .00002253  00000-0  15959-3 0  9995,2 54073  53.2157 193.2182 0001553 100.2521 259.8647 15.08849180 59127,6917.852,95.437,540.792,538.643,0.0
54073.0,STARLINK-5146,PAYLOAD,2023-11-11 09:21:33,15.08842111,0.0001587,53.2164,191.4334,97.8416,262.2756,0.00043188,6.592e-05,0.0,0 STARLINK-5146,1 54073U 22136Y   23315.38997075  .00006592  00000-0  43188-3 0  9994,2 54073  53.2164 191.4334 0001587  97.8416 262.2756 15.08842111 59187,6917.874,95.437,540.837,538.641,0.0
54073.0,STARLINK-5146,PAYLOAD,2023-11-11 22:04:38,15.08841008,0.0001635,53.2163,189.0538,101.8075,258.3101,0.00033854,5.104e-05,0.0,0 STARLINK-5146,1 54073U 22136Y   23315.91989232  .00005104  00000-0  33854-3 0  9996,2 54073  53.2163 189.0538 0001635 101.8075 258.3101 15.08841008 58785,6917.877,95.437,540.873,538.611,0.0
54073.0,STARLINK-5146,PAYLOAD,2023-11-12 01:15:24,15.08841846,0.0001639,53.2161,188.4592,99.5973,260.5205,0.00032934,4.958e-05,0.0,0 STARLINK-5146,1 54073U 22136Y   23316.05237219  .00004958  00000-0  32934-3 0  9997,2 54073  53.2161 188.4592 0001639  99.5973 260.5205 15.08841846 59286,6917.875,95.437,540.874,538.606,0.0
54073.0,STARLINK-5146,PAYLOAD,2023-11-12 09:12:20,15.08837857,0.0001657,53.2162,186.9707,107.4212,252.6961,0.00018765,2.7e-05,0.0,0 STARLINK-5146,1 54073U 22136Y   23316.38357430  .00002700  00000-0  18765-3 0  9990,2 54073  53.2162 186.9707 0001657 107.4212 252.6961 15.08837857 58853,6917.887,95.438,540.898,538.606,0.0
54073.0,STARLINK-5146,PAYLOAD,2023-11-12 21:55:25,15.0884429,0.0001607,53.2154,184.5929,97.9542,262.1633,0.00021498,3.135e-05,0.0,0 STARLINK-5146,1 54073U 22136Y   23316.91349282  .00003135  00000-0  21498-3 0  9995,2 54073  53.2154 184.5929 0001607  97.9542 262.1633 15.08844290 58938,6917.867,95.437,540.844,538.621,0.0
54073.0,STARLINK-5146,PAYLOAD,2023-11-13 01:06:11,15.08846504,0.0001666,53.2163,183.9982,97.3134,262.8048,0.0002545,3.765e-05,0.0,0 STARLINK-5146,1 54073U 22136Y   23317.04597220  .00003765  00000-0  25450-3 0  9998,2 54073  53.2163 183.9982 0001666  97.3134 262.8048 15.08846504 59439,6917.861,95.437,540.878,538.573,0.0
54073.0,STARLINK-5146,PAYLOAD,2023-11-13 21:46:12,15.08849057,0.000162,53.2154,180.133,93.8957,266.222,0.00025529,3.778e-05,0.0,0 STARLINK-5146,1 54073U 22136Y   23317.90708977  .00003778  00000-0  25529-3 0  9997,2 54073  53.2154 180.1330 0001620  93.8957 266.2220 15.08849057 59086,6917.853,95.437,540.838,538.597,0.0
54073.0,STARLINK-5146,PAYLOAD,2023-11-14 15:15:27,15.08838232,0.0001662,53.2146,176.8623,92.6938,267.4244,-1.5051e-05,-5.28e-06,0.0,0 STARLINK-5146,1 54073U 22136Y   23318.63573248 -.00000528  00000-0 -15051-4 0  9991,2 54073  53.2146 176.8623 0001662  92.6938 267.4244 15.08838232 59190,6917.886,95.438,540.901,538.601,0.0
54073.0,STARLINK-5146,PAYLOAD,2023-11-15 13:30:51,15.08839777,0.0001696,53.2125,172.6992,93.3414,266.7772,8.9911e-06,-1.45e-06,0.0,0 STARLINK-5146,1 54073U 22136Y   23319.56309241 -.00000145  00000-0  89911-5 0  9995,2 54073  53.2125 172.6992 0001696  93.3414 266.7772 15.08839777 59333,6917.881,95.438,540.919,538.573,0.0
54073.0,STARLINK-5146,PAYLOAD,2023-11-15 21:27:46,15.08839734,0.0002041,53.2129,171.2137,95.7677,264.3548,0.00011922,1.61e-05,0.0,0 STARLINK-5146,1 54073U 22136Y   23319.89429236  .00001610  00000-0  11922-3 0  9990,2 54073  53.2129 171.2137 0002041  95.7677 264.3548 15.08839734 59388,6917.881,95.438,541.158,538.334,0.0
54073.0,STARLINK-5146,PAYLOAD,2023-11-16 00:38:33,15.08837922,0.0001966,53.2124,170.6196,95.7678,264.3538,7.6311e-05,9.26e-06,0.0,0 STARLINK-5146,1 54073U 22136Y   23320.02677336  .00000926  00000-0  76311-4 0  9996,2 54073  53.2124 170.6196 0001966  95.7678 264.3538 15.08837922 59888,6917.887,95.438,541.112,538.392,0.0
54073.0,STARLINK-5146,PAYLOAD,2023-11-17 06:50:53,15.0883896,0.0001339,53.2103,164.9665,85.6119,274.5026,7.7789e-05,9.5e-06,0.0,0 STARLINK-5146,1 54073U 22136Y   23321.28533666  .00000950  00000-0  77789-4 0  9999,2 54073  53.2103 164.9665 0001339  85.6119 274.5026 15.08838960 60075,6917.884,95.438,540.675,538.822,0.0
54073.0,STARLINK-5146,PAYLOAD,2023-11-17 13:12:25,15.08838783,0.0001436,53.2109,163.7773,85.895,274.2206,6.8547e-05,8.03e-06,0.0,0 STARLINK-5146,1 54073U 22136Y   23321.55029724  .00000803  00000-0  68547-4 0  9993,2 54073  53.2109 163.7773 0001436  85.8950 274.2206 15.08838783 59631,6917.884,95.438,540.743,538.756,0.0
54073.0,STARLINK-5146,PAYLOAD,2023-11-18 13:03:12,15.08839973,0.0001558,53.2145,159.318,85.1992,274.9178,9.6555e-05,1.249e-05,0.0,0 STARLINK-5146,1 54073U 22136Y   23322.54389753  .00001249  00000-0  96555-4 0  9999,2 54073  53.2145 159.3180 0001558  85.1992 274.9178 15.08839973 60266,6917.88,95.438,540.823,538.668,0.0
54073.0,STARLINK-5146,PAYLOAD,2023-11-19 12:53:59,15.08842937,0.0001447,53.2093,154.8543,89.1036,271.0122,7.4692e-05,9.01e-06,0.0,0 STARLINK-5146,1 54073U 22136Y   23323.53749381  .00000901  00000-0  74692-4 0  9998,2 54073  53.2093 154.8543 0001447  89.1036 271.0122 15.08842937 59934,6917.871,95.437,540.737,538.735,0.0
54073.0,STARLINK-5146,PAYLOAD,2023-11-19 19:15:32,15.08841308,0.0001263,53.2145,153.6681,87.0545,273.0591,9.6151e-05,1.243e-05,0.0,0 STARLINK-5146,1 54073U 22136Y   23323.80245545  .00001243  00000-0  96151-4 0  9995,2 54073  53.2145 153.6681 0001263  87.0545 273.0591 15.08841308 60452,6917.876,95.437,540.615,538.868,0.0
54073.0,STARLINK-5146,PAYLOAD,2023-11-20 06:23:14,15.08837357,0.0001223,53.2139,151.5871,85.2292,274.8839,2.2431e-05,6.9e-07,0.0,0 STARLINK-5146,1 54073U 22136Y   23324.26613986  .00000069  00000-0  22431-4 0  9999,2 54073  53.2139 151.5871 0001223  85.2292 274.8839 15.08837357 60529,6917.888,95.438,540.6,538.907,0.0
54073.0,STARLINK-5146,PAYLOAD,2023-11-20 12:44:48,15.08823885,0.0001401,53.2166,150.3974,96.4616,263.6536,-8.8202e-05,-1.691e-05,0.0,0 STARLINK-5146,1 54073U 22136Y   23324.53111434 -.00001691  00000-0 -88202-4 0  9992,2 54073  53.2166 150.3974 0001401  96.4616 263.6536 15.08823885 60084,6917.93,95.439,540.764,538.825,0.0
